{"type":"FeatureCollection","name":"CUENCA_PALOTE","features":[{"type":"Feature","properties":{"OBJECTID_1":389,"RH":12.0,"NOMBRE_CUE":"Presa Palote","Shape_Area":290.906477266},"geometry":{"type":"MultiPolygon","coordinates":[[[[-101.63657577651776,21.334731370044516],[-101.6359505008828,21.334729884269194],[-101.6351099664442,21.334727882974633],[-101.63412070691167,21.334872946899203],[-101.63350917220967,21.33535791370425],[-101.63290882930369,21.335630370987005],[-101.63260369972573,21.335916430097683],[-101.63210091098483,21.33638779404741],[-101.6313305185772,21.33662999660824],[-101.63028480249679,21.33668509778341],[-101.62920841334618,21.336711305906437],[-101.62805406783512,21.337126273951718],[-101.62716214560407,21.33716732161741],[-101.62637861526616,21.336934918250467],[-101.62576402141521,21.33677495304437],[-101.62525633676181,21.33687455171729],[-101.62470196040748,21.33717571562354],[-101.6242556965586,21.337304273205095],[-101.62319637387135,21.33672543683651],[-101.62267448476635,21.33640722350553],[-101.62220576532472,21.336319632579503],[-101.62160602767295,21.336346962869097],[-101.62099203431734,21.336286804175614],[-101.62023460949501,21.33628680346437],[-101.61988114522158,21.336337299250097],[-101.61937619533964,21.33633729848238],[-101.6188770868999,21.336246555083797],[-101.61821481429537,21.336135318277886],[-101.61781679187779,21.33602062153994],[-101.61750788473032,21.335882844822503],[-101.61720231500071,21.335824607783138],[-101.61671818432784,21.335751367332893],[-101.61601899974833,21.335605557039372],[-101.61577315292136,21.335547316940687],[-101.61557349526252,21.335467583748123],[-101.6151972854442,21.335293768873683],[-101.61450656361608,21.334951120324654],[-101.61436096415537,21.334715432281264],[-101.61410821790751,21.334383462037202],[-101.61380211392986,21.333892893121426],[-101.6135500749198,21.333316025502366],[-101.61306711676279,21.332839414585195],[-101.61275642987266,21.332315245517545],[-101.61257286715013,21.331988250082254],[-101.6122054672291,21.33143029649955],[-101.61157195585731,21.330737213331503],[-101.61106128493334,21.33010206300836],[-101.61067306250897,21.329659299445176],[-101.61034684387569,21.32904382379963],[-101.6105125137514,21.32846801540071],[-101.6106985707045,21.327930674177747],[-101.61059924432654,21.326835585280072],[-101.61013048349729,21.325893217540028],[-101.60970222584221,21.32512382077982],[-101.6092943048057,21.32441209791231],[-101.60898305680688,21.324069974711445],[-101.60867127686193,21.32396604863252],[-101.60816632808772,21.323713572339845],[-101.60705544064552,21.323663079237047],[-101.60626345840537,21.323623480317305],[-101.6060455415551,21.32361258380507],[-101.60481264155223,21.32338496316254],[-101.60364441961276,21.323305112075506],[-101.60292774619961,21.32303434801718],[-101.60223265488678,21.32239869221058],[-101.60180456741418,21.321590859935387],[-101.60143706973024,21.321090506015082],[-101.60023027209719,21.32020380985585],[-101.59984239992079,21.31966498409435],[-101.59943070994518,21.31911853693306],[-101.59811784371558,21.31856309420731],[-101.59736042031079,21.318512597741176],[-101.59675448135387,21.318512597656003],[-101.5965614488043,21.31860491847523],[-101.59559309803706,21.319068043101048],[-101.59480149986057,21.319075494964594],[-101.59398104013829,21.319246188889487],[-101.59344778959213,21.319340811283258],[-101.59299914661307,21.319472001277287],[-101.59291686832924,21.31947200179673],[-101.59215944316067,21.319320517154118],[-101.5907455881741,21.318563094096575],[-101.58943271986307,21.317654185210195],[-101.58877628558203,21.316947256431703],[-101.58791787342857,21.316189832285936],[-101.5860495607502,21.314119542271225],[-101.58559510753899,21.31356409888786],[-101.5855502453837,21.31350428211213],[-101.58498916951297,21.312756179907456],[-101.58458520939244,21.31194826055723],[-101.58428223973296,21.311039353224903],[-101.58413075520022,21.310180939891975],[-101.58413075480951,21.309019557763886],[-101.58413075415967,21.308060153697802],[-101.58443372501709,21.307151245068304],[-101.58544362374805,21.30598986217649],[-101.58569609794525,21.30538392401976],[-101.58600903477041,21.304601577590287],[-101.58610005741932,21.3043740256077],[-101.58644673378882,21.302938065663124],[-101.58682056221006,21.301344861603987],[-101.5864354577821,21.299941682747868],[-101.58647963992595,21.298904604378276],[-101.58664815299962,21.298447258672454],[-101.58705945971079,21.29730474165155],[-101.58710995549106,21.29659781127616],[-101.58716044959466,21.295537418988385],[-101.58699129854665,21.295142735880944],[-101.58701738143975,21.2948915603271],[-101.58685562684403,21.294808245369122],[-101.58680698522411,21.294224551727105],[-101.58655451134258,21.293568118180097],[-101.58630203817555,21.29301267309626],[-101.58564560251082,21.292659209480878],[-101.58509015960166,21.29245722932724],[-101.5842822412339,21.292255250509896],[-101.58382778716711,21.29205327094799],[-101.5830703630115,21.291699807002168],[-101.58241392835839,21.291396836488833],[-101.58160601031764,21.291245351480264],[-101.58064660679648,21.290790896932677],[-101.57978819471028,21.290386938072956],[-101.57862681081778,21.2898819894568],[-101.57761691387101,21.28952852624177],[-101.57706146793159,21.289225556461997],[-101.57560128177427,21.288982193687204],[-101.5753852435319,21.288878046046044],[-101.57410599615115,21.28836429837556],[-101.57279416489975,21.288030517121967],[-101.57202392056483,21.287388496887704],[-101.57170764684885,21.2869554491113],[-101.57159655465705,21.2864461464065],[-101.57153605389,21.286138661323584],[-101.571425207982,21.28555253051969],[-101.57096576364768,21.2850326481096],[-101.57019895624207,21.28450229785986],[-101.56948203420745,21.284394642864935],[-101.56806811193199,21.284358246190585],[-101.56583948403431,21.284351939277578],[-101.56408428061575,21.283772106691917],[-101.5628724022102,21.283166169475727],[-101.56110508185765,21.281954290614276],[-101.560701121272,21.2815503311851],[-101.55999679807323,21.280970303773504],[-101.55898429611985,21.280136473194066],[-101.55792390254405,21.279278061626812],[-101.55696450067887,21.278621626070194],[-101.55403579550948,21.276854306304045],[-101.55327837175854,21.276399850903207],[-101.5526219382806,21.276147375780653],[-101.55176352595119,21.27544044776142],[-101.55014299198747,21.274751034121742],[-101.5492474479919,21.274460291887777],[-101.54840281417412,21.274265730262876],[-101.54791670425384,21.274096232579254],[-101.54725218411826,21.273662107861913],[-101.54638186286178,21.273491468015056],[-101.54528117755636,21.273272121049303],[-101.5441561027834,21.272692560450555],[-101.54367155238138,21.27206688562914],[-101.54298487008393,21.270624305069404],[-101.54257345344288,21.26963353521463],[-101.54237147221149,21.267108789374348],[-101.54237147274074,21.26645235646552],[-101.54242196873093,21.26579592251652],[-101.54237147253431,21.265038497022957],[-101.54181602688202,21.2640790949884],[-101.54156355468733,21.262766229149335],[-101.54156355366328,21.261809753998172],[-101.54156355537621,21.26180682584146],[-101.5418797397132,21.26119515388245],[-101.54203517816373,21.260677031086985],[-101.54208388000616,21.25991370014602],[-101.54191701821696,21.259181091095567],[-101.54178778392615,21.258567222830365],[-101.54171504121602,21.25822168745237],[-101.5414135413412,21.257849454921935],[-101.54111702107059,21.25748336339052],[-101.54067956122195,21.257143690868634],[-101.5399278732253,21.25676689723955],[-101.53919066736304,21.25664943704248],[-101.53838256381579,21.256895793133676],[-101.53779499635452,21.257099183803295],[-101.53712000400465,21.25746426346666],[-101.53700559766129,21.257567230151327],[-101.5366150569266,21.257918717989327],[-101.53636258159348,21.25817119232963],[-101.5357566414013,21.259029606045512],[-101.53545367196266,21.259534555492316],[-101.53489822861654,21.259938514061666],[-101.53403981585494,21.26044346178977],[-101.53277744337791,21.260594947348373],[-101.5320008943267,21.260517019526205],[-101.53124855885996,21.26032744844672],[-101.530388253504,21.260252784104843],[-101.52929683782095,21.260350266776385],[-101.52877359938286,21.260564734511014],[-101.52787943765865,21.25973653601204],[-101.52752597458318,21.259181091298053],[-101.52709061484607,21.25845637968494],[-101.52683105105153,21.2579802052555],[-101.52664806932884,21.2575762934847],[-101.52646558106373,21.257312779744097],[-101.52575865200787,21.256959313931514],[-101.52509836601203,21.256908851706402],[-101.5245463366552,21.256575817629876],[-101.52422450346155,21.256329928816005],[-101.52371898666773,21.2558817949581],[-101.52336647461735,21.25562140372814],[-101.52308100573312,21.255212393748362],[-101.52260261415331,21.25470071813062],[-101.52237549426859,21.25438407605022],[-101.52197153516654,21.253929621229968],[-101.52182147241132,21.253643072787334],[-101.52155326664493,21.25344416314083],[-101.52137323827309,21.253295947027816],[-101.52115085046064,21.253176408475806],[-101.52070916286634,21.253172199045448],[-101.52049404527705,21.25314554096102],[-101.52028665211245,21.253130485631132],[-101.51982976305065,21.25305702648154],[-101.5195463367319,21.252818451388872],[-101.51943241587882,21.252447160571396],[-101.51939519762972,21.252112123625018],[-101.51930369604203,21.251917366484122],[-101.5188913457993,21.251051413493045],[-101.51858837674234,21.250697947645037],[-101.5183863972043,21.250495967233817],[-101.51793194390663,21.250192998521936],[-101.51767946756195,21.250092008385028],[-101.51730970821498,21.24996875682174],[-101.51707352870437,21.24989002990877],[-101.51672006576145,21.249789038951956],[-101.5165685803924,21.249738544856655],[-101.51641709750525,21.249688048958788],[-101.51591214654194,21.249536565621558],[-101.51530620824495,21.24923359554924],[-101.5148517541688,21.249082110875715],[-101.514346805576,21.24877914160734],[-101.51399333906062,21.248173202559972],[-101.51333690760826,21.247213800035176],[-101.51283361725268,21.24631957833682],[-101.51236866872114,21.245493474982492],[-101.51173740888004,21.242908873017043],[-101.51197571866118,21.241558492919584],[-101.51204456678235,21.239522796216185],[-101.51188479028754,21.238389088800922],[-101.51178752030812,21.236967480650396],[-101.51191461867369,21.235815483511946],[-101.5123708716241,21.23489672417522],[-101.51316960127403,21.23434056697149],[-101.51448157378161,21.234095049806292],[-101.51598508280128,21.233899851506234],[-101.51701030228323,21.233639000140883],[-101.51844565446231,21.23325939190833],[-101.52000877433767,21.232952196297376],[-101.52116260996434,21.232523662489843],[-101.52216459124223,21.2315904710772],[-101.52311449485985,21.230897194359954],[-101.52375584038215,21.230563076196074],[-101.52437123696336,21.2303249079291],[-101.52489350625949,21.2301087491077],[-101.52521164863278,21.22993207554109],[-101.5253713550576,21.229663678308835],[-101.52549997793028,21.229496019336956],[-101.52561839199751,21.229318725300583],[-101.52588070652487,21.228997827600082],[-101.52596890047562,21.228676390016776],[-101.52604287498062,21.228393611970656],[-101.52612031997754,21.22809756621269],[-101.52630125114773,21.22761796135495],[-101.52666108142786,21.227234943141866],[-101.52761042506681,21.226685688158653],[-101.52797403974819,21.22643541773896],[-101.52832801683789,21.226258848684115],[-101.52868778745437,21.226136821993205],[-101.52900539327972,21.22586239920555],[-101.52922743191647,21.22558629443118],[-101.5294579610469,21.225316404419484],[-101.5298993599095,21.225034464581263],[-101.53016121967856,21.224838401732256],[-101.53038247956273,21.224536577664814],[-101.53054243746145,21.224191350419662],[-101.53068150846222,21.223961298384353],[-101.53084148317943,21.22373728880388],[-101.5310157786492,21.22355898581776],[-101.53136234057085,21.22325923819564],[-101.53166848200406,21.22288875617208],[-101.53199142563544,21.222567638684666],[-101.53222880202144,21.222275861161712],[-101.5325429376097,21.222019240352274],[-101.53297822301461,21.221769177799665],[-101.53342445718586,21.221564069339596],[-101.53385516091895,21.22140692861614],[-101.53459401348475,21.22099143643769],[-101.53500970009796,21.220733412556598],[-101.5352561483104,21.22054689793318],[-101.53552946354898,21.220294147793023],[-101.53566737460861,21.220096793570427],[-101.53596027266865,21.219804783043628],[-101.53616048149169,21.21966134144222],[-101.53663263874108,21.219360269959022],[-101.53686938628655,21.219015269812385],[-101.53699410729895,21.21855159683075],[-101.53704663740068,21.218167625824357],[-101.5370357364656,21.21761540608764],[-101.5369737937847,21.217015015803675],[-101.5368858348224,21.21653458742852],[-101.53657975132549,21.21619754697098],[-101.53626061932708,21.215932490674632],[-101.53619403377682,21.21585467531525],[-101.53604365335613,21.21573976796073],[-101.53585216700522,21.215583134413322],[-101.53578890460895,21.215366869646477],[-101.53578969188446,21.215138795247356],[-101.53588013167159,21.21489898891317],[-101.53597712020782,21.214727541341176],[-101.53607046986785,21.214580952594744],[-101.53617643111703,21.214359706069054],[-101.5363071773309,21.21424555740525],[-101.53642553061941,21.21407785969789],[-101.53647244352102,21.213837921233935],[-101.53656374499113,21.213412561614916],[-101.536744495112,21.212968960192963],[-101.53693759074314,21.212657440303357],[-101.53713089205448,21.212285900745634],[-101.53733666322545,21.21201043089544],[-101.5376066875966,21.21166313098489],[-101.5378637443346,21.211363807544224],[-101.53801268833871,21.211168085334847],[-101.5382848491553,21.210943231765576],[-101.53860827969712,21.210699326004896],[-101.53882692510838,21.210466414053425],[-101.53910978479774,21.21010714652039],[-101.53936679410218,21.20981982470367],[-101.53960538287345,21.209612367093143],[-101.53996468362917,21.209358963444803],[-101.54018799347436,21.209258107750575],[-101.54066729669563,21.209034566463266],[-101.54119689996124,21.208861814239597],[-101.54174811901846,21.208635391187784],[-101.54206711433744,21.2084673739833],[-101.54267681615985,21.208358761581277],[-101.54333609315431,21.208448077752795],[-101.5437925551707,21.20851094325073],[-101.54407359067086,21.20868463877891],[-101.54442234566527,21.20899149646474],[-101.5450868620089,21.209329585299162],[-101.54610957031537,21.209740761905355],[-101.54705571903523,21.210079677292132],[-101.54829549323148,21.21065953655786],[-101.54853774912331,21.210851398955043],[-101.54888265677518,21.21106848880551],[-101.54926596926856,21.211285691087546],[-101.54952199420894,21.21138339412751],[-101.55000111691677,21.21156394806927],[-101.55045457890826,21.21185937989236],[-101.55086323898365,21.212251626474288],[-101.55104755511462,21.212545350561083],[-101.55125167596815,21.212756019927053],[-101.55150058235711,21.212972822389617],[-101.55185206094986,21.213141908960335],[-101.55231917292639,21.21318529099927],[-101.55281804928752,21.21330078862593],[-101.55330414499353,21.213410245291485],[-101.55379108096515,21.213364566416995],[-101.55430275725763,21.213383148495602],[-101.5550774233227,21.213331385843713],[-101.5556215241493,21.213320963633784],[-101.5562040490097,21.213304648974525],[-101.55671040227006,21.21319299539236],[-101.557081540458,21.21312713227782],[-101.55764507933685,21.213044735040267],[-101.55825964571224,21.21301650120398],[-101.55895112659151,21.213055425333863],[-101.55948870625822,21.21308098350242],[-101.5597565378708,21.212734638100038],[-101.55988569147324,21.212386893101925],[-101.56007940040205,21.211871277004764],[-101.56027306800107,21.211367665979665],[-101.5604674409086,21.210647984700195],[-101.56055928495115,21.209964019190863],[-101.56071525062991,21.209244227840678],[-101.56092214610398,21.208608611346463],[-101.5610773633314,21.208116893484203],[-101.56111799951563,21.207432783910562],[-101.5611848621502,21.206556684796073],[-101.56123782769473,21.20601665798621],[-101.5613676757097,21.20545284359516],[-101.56162607553289,21.20472134342248],[-101.56184564257215,21.20412177384857],[-101.5621808015682,21.203402496771822],[-101.56247708717868,21.202827154589958],[-101.56336432984475,21.201593283653466],[-101.56378810586956,21.20117435619274],[-101.5641050690854,21.200894851598882],[-101.56465215517613,21.20034182829918],[-101.56510640030058,21.199997407567384],[-101.56539123906006,21.199789348977184],[-101.5659609139354,21.199373230281573],[-101.56645795529678,21.19888919723947],[-101.56671648409923,21.198467876531584],[-101.56703233855426,21.19816627243031],[-101.56736915380465,21.198147535978883],[-101.56779085971387,21.198364798937096],[-101.56818677328206,21.19864200721024],[-101.56856911873507,21.199159253388846],[-101.56887462912114,21.19968828792411],[-101.56919317002465,21.200145334187425],[-101.56952459151384,21.200578409640794],[-101.57032845211258,21.20138013228521],[-101.57081796201878,21.202015315398103],[-101.57143121733534,21.20238195428142],[-101.57208519114705,21.20282552987621],[-101.57265663834316,21.203460936840536],[-101.57326601191109,21.203808836069708],[-101.57395637396412,21.204084450905754],[-101.57479925295907,21.2047062007086],[-101.57521149085038,21.205499607631012],[-101.57554126145158,21.206354556752398],[-101.5755392230856,21.206371912053058],[-101.57592215644733,21.2067186886816],[-101.57628968538408,21.207079826509034],[-101.57675713321454,21.20734770248463],[-101.57715588647699,21.20755047225546],[-101.57770911128318,21.20747997691793],[-101.57801678456877,21.207336778425105],[-101.57837026934514,21.20728013424124],[-101.5788003334428,21.207295724009903],[-101.57944518203473,21.207398331947203],[-101.57987346382372,21.207610296033078],[-101.58020044833015,21.207841668364832],[-101.58077309269845,21.208112129614943],[-101.58130531266487,21.20820961956403],[-101.58159229284995,21.208133578983563],[-101.5821868545298,21.207943141470743],[-101.58265798770068,21.20792522007512],[-101.58343652033233,21.207850516588742],[-101.58421469818995,21.20789104790382],[-101.58497233666232,21.207950725590315],[-101.58570949226309,21.208010341826373],[-101.58644706428824,21.207935512608696],[-101.58724297506357,21.207203019562787],[-101.58756666255792,21.20684377383202],[-101.58805953697406,21.20641295852654],[-101.58864422179269,21.206097628306853],[-101.58942837804943,21.20585485571419],[-101.59004368975701,21.20556841015165],[-101.59045957283962,21.205195001388947],[-101.59079939677282,21.20457650583147],[-101.5909699419012,21.20405839218383],[-101.59120179707638,21.203583656626993],[-101.59152625040063,21.202965119525725],[-101.59171913225916,21.202640811298515],[-101.59194216561421,21.202577301945713],[-101.59244893060888,21.202621867988128],[-101.59313993691792,21.20269573022627],[-101.59389273253414,21.202654516291403],[-101.59464626809003,21.202368422005176],[-101.59561510423467,21.20199646402103],[-101.59594254286333,21.201691126727045],[-101.59596938914552,21.201666092416776],[-101.59562181336466,21.20104216901314],[-101.59511160864604,21.200440623715917],[-101.59472950110384,21.199809405396273],[-101.59473221386517,21.198909119093354],[-101.59489492714901,21.198009255518308],[-101.59531246123917,21.19750019515825],[-101.5956982635126,21.19690102143324],[-101.59602060434075,21.196121621299888],[-101.59643920940803,21.19525244262552],[-101.5967948001313,21.19405299465024],[-101.59724682988563,21.19270374953638],[-101.59737725070956,21.19189383150544],[-101.59740828823374,21.191329675600517],[-101.59767922900649,21.190610157331648],[-101.59826986055086,21.18998750984188],[-101.59888551221945,21.18955698745026],[-101.59939830200955,21.189282243222923],[-101.60002671026348,21.188863753691052],[-101.60103540873986,21.18842230335716],[-101.60193924522339,21.18788683026205],[-101.60253422689108,21.187513858345003],[-101.60273983329247,21.187235903789084],[-101.60313274696664,21.185940511134717],[-101.60334952327099,21.185345684297825],[-101.60356618444891,21.184789269257656],[-101.60376211134954,21.184319227780115],[-101.60423510922932,21.183638636602332],[-101.60507610881676,21.18316065889468],[-101.60577350553358,21.18276873388637],[-101.60633813096476,21.18226122764995],[-101.60752022301801,21.181146771095275],[-101.60787419108549,21.180457459502723],[-101.60805248698203,21.179497731728148],[-101.60806922586056,21.17940762932409],[-101.60835963350907,21.178568109491994],[-101.60896911458762,21.178029502164133],[-101.60961315764261,21.177456110521636],[-101.6103432717588,21.17724190519266],[-101.6106680756425,21.176923489189022],[-101.61098567209807,21.176379270742366],[-101.61088564972701,21.175562761543215],[-101.61069500192933,21.175106134110393],[-101.61042767308055,21.17461330000569],[-101.61017338741021,21.174036472700525],[-101.6100060138896,21.173530744568925],[-101.61016954794414,21.172300780306575],[-101.6108432433464,21.171672302513507],[-101.61212394408386,21.17134545427897],[-101.61327562855837,21.17137838030627],[-101.61391507190302,21.17153004272581],[-101.61525837748667,21.171683475731978],[-101.61669818087445,21.171657080752084],[-101.61714745898745,21.171178059208273],[-101.61772556059672,21.17039926362833],[-101.61827225880555,21.169410323920665],[-101.61949363493966,21.167421505563738],[-101.62077605065402,21.1664643988446],[-101.62148140585684,21.165925981330158],[-101.62340346700381,21.165030450940694],[-101.62474780610133,21.164793683624644],[-101.62628309490681,21.16491748162365],[-101.62788054377087,21.165701614895752],[-101.62838215264516,21.16605040376877],[-101.62838973551398,21.166052953527874],[-101.62879849627565,21.166322828696057],[-101.62915523266558,21.166618024428896],[-101.62915583261076,21.16661893002825],[-101.62926992943436,21.166791155498466],[-101.62927969497275,21.166803295166677],[-101.6297680539469,21.167184961494893],[-101.63003605771914,21.16740879986806],[-101.63032378211577,21.16773655714979],[-101.63058936744385,21.168054156150443],[-101.63076724393908,21.16842183872726],[-101.63089704407054,21.168688633998357],[-101.63114168412268,21.169078143935387],[-101.63137110699981,21.169417201365647],[-101.63165729936362,21.16952221412752],[-101.63203372585917,21.16964219713671],[-101.63246846293086,21.169685415718465],[-101.63285458055232,21.169724835195012],[-101.63315611611281,21.16980806434467],[-101.63332481690355,21.169890574286246],[-101.633487218202,21.170030686695753],[-101.63369247773839,21.170222757605877],[-101.63396799527406,21.170556159994696],[-101.63421746227175,21.17086933340997],[-101.63432186910612,21.1711280629209],[-101.63431334224519,21.171440138909976],[-101.6341692660935,21.172828615716558],[-101.63416615205583,21.17285862571811],[-101.63419302070746,21.17333163656671],[-101.63434471314594,21.174023413901722],[-101.6344459727833,21.174436584259535],[-101.63455737997307,21.1748833893541],[-101.63452071123986,21.17519059729678],[-101.63431936828775,21.1758143102449],[-101.63426734125618,21.17612148156845],[-101.63429438763445,21.176215655592735],[-101.63492820705109,21.176570080209846],[-101.63625962532988,21.177360698990693],[-101.63725863205028,21.178030480765234],[-101.6375908587525,21.178225729358367],[-101.63769036723606,21.17834360197858],[-101.63786575344908,21.17880016025185],[-101.63797157835522,21.179044119187715],[-101.63812140819199,21.179248537803847],[-101.63822654150954,21.179416839263503],[-101.63843729290411,21.179573386672814],[-101.63857281858012,21.179618342986966],[-101.63890411475883,21.179691526477626],[-101.63930370628182,21.17982451100149],[-101.63951859277947,21.179951057288218],[-101.639760360454,21.18015569110943],[-101.64005736807749,21.180921030784813],[-101.64013309962692,21.181119023206985],[-101.64030139245877,21.18155900553862],[-101.64039698602362,21.18170687685925],[-101.64055951722011,21.18190615869158],[-101.64063554251229,21.18195490732787],[-101.6415177709574,21.182520601101352],[-101.64215308753006,21.18329273236175],[-101.64228294374787,21.183552318091593],[-101.64222832747927,21.18387629275272],[-101.64165688204731,21.18507053312163],[-101.64163995009963,21.185661080684117],[-101.64169293776058,21.18594929626081],[-101.64194512808355,21.186410833321478],[-101.64222089463667,21.186670761149152],[-101.64248164809692,21.18680101220271],[-101.64290808531219,21.186782765420226],[-101.6437794301198,21.18640067561471],[-101.644410062522,21.18605163206022],[-101.64517229363045,21.1857197337968],[-101.64559499671638,21.185591072922495],[-101.64565347793916,21.1856047040045],[-101.6460631493143,21.18570019145805],[-101.64623854869052,21.18574857548666],[-101.64699581139185,21.185913577243365],[-101.64783018344058,21.18595871477189],[-101.64901276025431,21.18597583821866],[-101.64992393904171,21.186016339069976],[-101.65109113308151,21.186043014273054],[-101.6519609590075,21.186237057384947],[-101.65244658463556,21.186521451811274],[-101.65290613122777,21.18699304504898],[-101.6533448685296,21.187594231100338],[-101.65370219017,21.188003170588225],[-101.65413648138133,21.188345062019085],[-101.65521992385028,21.18909654739165],[-101.6557260085186,21.18939538256754],[-101.65625236557368,21.18977588775577],[-101.65655882356533,21.190059866822043],[-101.65676757951324,21.190511679799897],[-101.65697610420625,21.191054721294503],[-101.65711376182762,21.19128070227152],[-101.65742582176036,21.191377432407986],[-101.65771754975235,21.191416497947177],[-101.65961201577441,21.19135830648502],[-101.66143975424106,21.191367165372366],[-101.66269296109924,21.19182127930211],[-101.66330666008871,21.192091517899264],[-101.66365407254257,21.19238517633331],[-101.66490253911566,21.194162124250095],[-101.66529523803729,21.19472448363421],[-101.66538497692964,21.194848265230466],[-101.66597693350924,21.195584350706987],[-101.66599168209402,21.19559056939007],[-101.66609717595772,21.195632813315765],[-101.66632109768224,21.19566331174136],[-101.66641075571673,21.19563949959424],[-101.66650312949578,21.195618802141944],[-101.66695353007502,21.195528846517384],[-101.66695376105464,21.195529315862327],[-101.66719358830254,21.195497515083325],[-101.66802612540698,21.19513010522426],[-101.66810453852396,21.19486352976628],[-101.66824884270727,21.194479719157883],[-101.66855726537105,21.193981027213802],[-101.6690093245933,21.19336740871941],[-101.6693382683335,21.192849553787298],[-101.66954419308918,21.19238905100856],[-101.6696319063345,21.191788448766026],[-101.66992692538928,21.19022741024176],[-101.67023922847522,21.188139418101397],[-101.67131851548848,21.186437200170083],[-101.67239672271262,21.185167110756044],[-101.67285599394576,21.183926552721505],[-101.67388672778436,21.18110786508827],[-101.67512693884238,21.178186739636857],[-101.67594719542393,21.175830594647266],[-101.67729658919721,21.173492723879964],[-101.67902484796554,21.173256287948362],[-101.67914320848598,21.173307050652237],[-101.6952585336147,21.173207812059722],[-101.69529341494824,21.173207595417338],[-101.6964709998691,21.173200276955328],[-101.6965708185484,21.173199656184483],[-101.69663741064211,21.173199242013073],[-101.6979150171255,21.174162069577783],[-101.69815638441662,21.174336976542268],[-101.69857942639723,21.174643529751535],[-101.69960281971439,21.174837602452307],[-101.70072892043616,21.17488782557113],[-101.70211055237037,21.17513059720373],[-101.70324512144845,21.175403032955764],[-101.70405935079884,21.175274970790525],[-101.70491968241923,21.17513258881178],[-101.70548897116204,21.175233172638944],[-101.70674605191613,21.175669067690475],[-101.7080042074016,21.17620444089023],[-101.7094159488061,21.176740095834944],[-101.71116771137724,21.176876510183682],[-101.71290854665075,21.176735744612387],[-101.71449700711696,21.176028096825693],[-101.71463583474714,21.17574026771431],[-101.715143914086,21.17513622717346],[-101.71578989712087,21.174676487510713],[-101.71628224520344,21.174245267341686],[-101.71668274872127,21.173669831889246],[-101.71703766145762,21.1728638398087],[-101.71729991411787,21.172302551396992],[-101.71755995527704,21.171574168863994],[-101.71817564360197,21.170903096425008],[-101.71894599742623,21.16970414596091],[-101.71946009421765,21.168648767969728],[-101.720178236425,21.16792986408331],[-101.72135826037581,21.166635623960435],[-101.7223838054875,21.165773225325726],[-101.72323700236223,21.1647044321659],[-101.72369808340582,21.164513207805605],[-101.72461822671215,21.165115050028565],[-101.72564036213484,21.165909128376498],[-101.7264764887513,21.16693295235053],[-101.72744575686606,21.168567182363997],[-101.72861990492879,21.170153755075468],[-101.7296410897424,21.171451961814437],[-101.73076409643284,21.173038431923178],[-101.73173480352924,21.174000435671328],[-101.73342277092486,21.174675595151022],[-101.73434402458184,21.174773227806575],[-101.73511855221619,21.17464051479036],[-101.73627049514454,21.17457048368768],[-101.73693574550569,21.17469166676177],[-101.73751741292067,21.175018781813],[-101.73884698946833,21.175741281084452],[-101.7398187002008,21.17622308676529],[-101.74094297873431,21.177233309408987],[-101.74355167403438,21.178342050610713],[-101.74534788337418,21.17936335415021],[-101.74665221948965,21.179941700583186],[-101.74818689232758,21.18054442305885],[-101.74913267259191,21.181242195392795],[-101.74953360945972,21.182433240006418],[-101.74876103398941,21.184928757380675],[-101.74829767213933,21.186320436325605],[-101.74778274371592,21.187904088436],[-101.74660143061527,21.189918775224122],[-101.74511253271801,21.192125005795596],[-101.744394120866,21.19298808464868],[-101.74352018125649,21.194859221291118],[-101.74285184230678,21.196298561454846],[-101.74269567235953,21.19764273188931],[-101.7421297107481,21.19908224516236],[-101.74197445209897,21.19994626258317],[-101.74212612038997,21.200954844051157],[-101.74253389070755,21.201915844382277],[-101.74278732849854,21.20326070837101],[-101.7426308741669,21.2047489322238],[-101.74262765818183,21.206429475167933],[-101.74282889035977,21.208302431086253],[-101.7430816986905,21.20998340780768],[-101.74338608755511,21.211472411715263],[-101.74389484887463,21.21320183763682],[-101.7441988863444,21.21488290360121],[-101.74429874268766,21.21622751826555],[-101.74413512356224,21.21811787649304],[-101.74397309901619,21.21916795717233],[-101.74400304941464,21.22024837106152],[-101.743616808934,21.221388106257397],[-101.74303841462988,21.222587540155427],[-101.74258889696614,21.223337039013057],[-101.74181879241432,21.224356084152383],[-101.74143246627757,21.225525828412813],[-101.74107825540734,21.22663560733625],[-101.74101146590708,21.22807598350093],[-101.74075292110916,21.229365986347922],[-101.74043018106136,21.230745910865533],[-101.74039620321072,21.23176620232905],[-101.74058651507373,21.23266683377297],[-101.74141855887251,21.232758272152232],[-101.74186725040256,21.232458928526427],[-101.74260447432862,21.231919983911897],[-101.74398225311367,21.23117203988567],[-101.74539173799835,21.230574187940288],[-101.74654486870605,21.23012594834746],[-101.74760219149942,21.229557502879246],[-101.74901130964813,21.229139676963154],[-101.7503880772978,21.22890184861741],[-101.75166803877526,21.22908399296611],[-101.75221139176087,21.229505016942408],[-101.75301047911518,21.23010651501682],[-101.75368186979283,21.23052774013518],[-101.75435747666597,21.23094296897914],[-101.75417777334464,21.2311947671314],[-101.75378023550321,21.23154224491593],[-101.75348492607887,21.23199792719364],[-101.7530618230053,21.232321355187967],[-101.75243318045032,21.233016578900408],[-101.75224059908065,21.233304364878276],[-101.75197106313293,21.23366405161544],[-101.75176545580456,21.234071858307175],[-101.75155978069223,21.234515677029492],[-101.7514054714623,21.234875551786025],[-101.7511616714867,21.235163254031434],[-101.75098197641105,21.235403043669425],[-101.75094330069932,21.23554703172598],[-101.75091713607115,21.23584709107122],[-101.7509551694927,21.236051224454215],[-101.75117223281212,21.23637568888345],[-101.75154282807654,21.23676042459249],[-101.75205437925972,21.23708536591892],[-101.75248917553408,21.237374168488767],[-101.75291114882643,21.23767495513052],[-101.75311541607638,21.237999396425778],[-101.75334487044341,21.23855195905256],[-101.75351015567033,21.23918844561697],[-101.7537523750715,21.239765035565803],[-101.75384116797811,21.240221338529413],[-101.75405767174885,21.24085790696037],[-101.75424848232147,21.241542450843934],[-101.75432412395041,21.242190799027004],[-101.75437468309319,21.242551005578616],[-101.75443802623528,21.24292323650336],[-101.75448113062936,21.243158587616684],[-101.75407042550461,21.24368611277204],[-101.7536082354036,21.244357603604172],[-101.75324812675117,21.245221326710922],[-101.75301636576769,21.24591719548873],[-101.75265686510141,21.24644480036361],[-101.7518487329028,21.247223764449384],[-101.7510153166486,21.24782262271174],[-101.75011708655992,21.24884151720095],[-101.74864172198909,21.2503396303009],[-101.74748701759513,21.251538153179993],[-101.74678047466237,21.252737410626025],[-101.74633013860011,21.253877068548498],[-101.74619925441377,21.255377385325286],[-101.74619823466006,21.255917576110914],[-101.74619653505371,21.2568178937182],[-101.74670694861423,21.257779083847527],[-101.74708908744117,21.258860102059586],[-101.74740720373455,21.25994101428668],[-101.7473761087567,21.259959492193754],[-101.74744961287206,21.259961604042296],[-101.74744084439817,21.260128050475572],[-101.74742305466067,21.260465740668703],[-101.74706304143979,21.261233423306226],[-101.74629291229392,21.262168484780567],[-101.74557363332623,21.26329569651534],[-101.74472655243162,21.26427864013302],[-101.74418722508534,21.265046016766963],[-101.74326346640704,21.265932791224763],[-101.74254506146988,21.26657981986434],[-101.74205721542438,21.26720322409935],[-101.74149266231225,21.267754471409905],[-101.74148816677234,21.267763906848952],[-101.74097440422518,21.26803031241021],[-101.74035908965459,21.26833658118931],[-101.73972309555256,21.26873884730778],[-101.73908702308889,21.269179524730223],[-101.73857374271066,21.2696972374645],[-101.73816265167807,21.270349572572513],[-101.73779220179465,21.271174839591154],[-101.73760586919445,21.27215407814647],[-101.7374812333644,21.273018180677997],[-101.73729467073338,21.274112661758824],[-101.73731616169965,21.27422256144255],[-101.73727870636672,21.274589793201528],[-101.73727729870332,21.275310055012977],[-101.73743014286121,21.27574247648886],[-101.73771068841046,21.276367187361846],[-101.73801685022076,21.276991941794897],[-101.73847647460366,21.27773700297108],[-101.73901360321169,21.27814607001464],[-101.73993408133724,21.279011955816877],[-101.74077832704238,21.27956559380872],[-101.74118725071824,21.280046461785506],[-101.7416211497006,21.280863498888653],[-101.74200405054128,21.281560401900933],[-101.74225868964422,21.282353125741455],[-101.74230854116605,21.283073477030662],[-101.74228200572762,21.28355361127686],[-101.74187094488431,21.28417715084461],[-101.74153640722801,21.284968881497267],[-101.74099656229748,21.28595233593708],[-101.7405084052395,21.286695787572267],[-101.7402770634782,21.28710354766735],[-101.73981488990987,21.287654968294135],[-101.73902010612284,21.287989741392277],[-101.73784091943081,21.28839587867266],[-101.73732782562223,21.288779143553516],[-101.7369683360791,21.289210686795638],[-101.73678859044051,21.289426458969945],[-101.73714671957603,21.289691173924307],[-101.7377610711996,21.28993231968949],[-101.7385801788068,21.29026984589084],[-101.73897196987271,21.29061528449803],[-101.73903267000816,21.291018740175225],[-101.73890813850436,21.29182523177788],[-101.73872178530247,21.292804483418898],[-101.73853610251592,21.293438004612447],[-101.73878013164021,21.294417991937117],[-101.738764819175,21.294471415639816],[-101.73837113004785,21.294839029100853],[-101.73772411064327,21.295572599772516],[-101.73683173635884,21.29600323157708],[-101.73583150263137,21.2965633213328],[-101.73524674106964,21.296893636557385],[-101.73464688967046,21.297079868739882],[-101.73416966565692,21.29743917732323],[-101.73390775316753,21.297741237114767],[-101.73369161136077,21.29821624191329],[-101.73344452498098,21.298792031028032],[-101.73315157906696,21.299238090578246],[-101.73284363180316,21.29949685211361],[-101.73258219957414,21.299554017475092],[-101.73229019601035,21.299524695972114],[-101.7318292771848,21.29940864507416],[-101.73177983561662,21.299420983298234],[-101.73175417061795,21.299412813358718],[-101.73088467947062,21.299331299031355],[-101.73028690460754,21.29927695618835],[-101.73025386021757,21.299274414500292],[-101.73022832783776,21.299276181938225],[-101.72970315576096,21.299263250704822],[-101.72924203209168,21.299250430997848],[-101.72857578425263,21.299321278257132],[-101.72814003701033,21.29942854598421],[-101.7276274552705,21.299523671174327],[-101.7272047355983,21.299522918249497],[-101.72664135352994,21.299401867210882],[-101.72625725886927,21.299305144054323],[-101.72614277548695,21.299258920973156],[-101.72602095754746,21.29924978430968],[-101.72583136700301,21.299154989205842],[-101.72547752558171,21.2989780678371],[-101.72512769499663,21.29868077707262],[-101.72471652502504,21.298561754166364],[-101.72406460215983,21.298543322089234],[-101.72357928804213,21.29853261208417],[-101.72342891744034,21.298529294223563],[-101.72285003577113,21.298356169751884],[-101.72262450631408,21.298108577277862],[-101.72237995928927,21.29799989025002],[-101.72140178464822,21.29791837467119],[-101.72099420799395,21.298244436019115],[-101.72074966434587,21.298244434734183],[-101.72009754382867,21.298570494851404],[-101.7197986572221,21.298815039399482],[-101.71949976999932,21.298950898319518],[-101.71920088024528,21.299222613715195],[-101.71879330695344,21.299630186483206],[-101.71835856149008,21.299901904313096],[-101.71800533017614,21.30003776229205],[-101.717597755984,21.300227963407178],[-101.71659095981953,21.300562434940357],[-101.71548847980863,21.30095654067283],[-101.71488593435353,21.301183506497157],[-101.71428281673687,21.301369172445497],[-101.71373938763736,21.301559373384578],[-101.71316878156196,21.30161371739834],[-101.71300575131659,21.301613715269113],[-101.71276120799398,21.30172240309597],[-101.71254383454534,21.301695230034817],[-101.71227211866245,21.301396343032213],[-101.71216343288363,21.300934424609007],[-101.71204333239857,21.300625973290376],[-101.71199294213059,21.300229727173598],[-101.71191688127081,21.299857441967696],[-101.71196878901009,21.29954542059443],[-101.71191860520932,21.299053138471674],[-101.71170151433526,21.298733523307444],[-101.71113090989253,21.29862483616311],[-101.71066899320599,21.298434636052654],[-101.71051700577158,21.298383974726246],[-101.7100638192776,21.297906054091317],[-101.70998970322233,21.297728172786265],[-101.70988101628508,21.297293428371276],[-101.7098538451081,21.297048882587017],[-101.70971798700938,21.296396764448087],[-101.70933758333183,21.2960707059792],[-101.70887566666707,21.296070706361693],[-101.70857677767798,21.296070704624913],[-101.70800617431668,21.296070704728912],[-101.7077888019576,21.295907675902303],[-101.7074899131487,21.295581616788855],[-101.70713668293864,21.295364243824096],[-101.70693521518285,21.295293137066132],[-101.70692468587582,21.295282403050702],[-101.70659735531608,21.29501287390367],[-101.70626948040248,21.29499303765837],[-101.7060234167444,21.295050187007984],[-101.70594084919996,21.295318930309513],[-101.70577592334674,21.295760380864806],[-101.70566087365073,21.296187933924813],[-101.70561507282628,21.296233735116285],[-101.70528901312115,21.296423935778922],[-101.70515315363187,21.296559792934175],[-101.70477275118849,21.296641309202755],[-101.70455537912345,21.296722823662414],[-101.70403911778378,21.29683150912488],[-101.70374022864665,21.29685868206568],[-101.70359234172915,21.29690797700848],[-101.70349568492803,21.296940198366624],[-101.70319679770661,21.297130399668298],[-101.70287073663037,21.29748362916229],[-101.70273487765374,21.297864032910425],[-101.70238164835024,21.298027062651528],[-101.70151215563148,21.297782517560144],[-101.70105023986854,21.29761948867056],[-101.70056114963883,21.297592316473413],[-101.70015357493551,21.297374942639816],[-101.69988185926029,21.297239085876505],[-101.6993927708287,21.297103227169075],[-101.69890368161842,21.29710322771399],[-101.69846893414277,21.297374942994143],[-101.69806136043803,21.297456458322596],[-101.69781681636702,21.29745645915742],[-101.69719186914115,21.29772817402151],[-101.69670277852731,21.297782518638105],[-101.69626803272479,21.2980814058354],[-101.69586046010826,21.298353121277206],[-101.6955374579764,21.298525388737524],[-101.69545288545777,21.29857049395994],[-101.69523551345424,21.29865200913257],[-101.69501813864912,21.298842209099274],[-101.69468253778146,21.299075599928663],[-101.6942248654018,21.299256092051237],[-101.69391545212389,21.29931410650302],[-101.6935694565563,21.299371771269648],[-101.6933739791532,21.299404351653575],[-101.69300655030258,21.299533274006162],[-101.6926842476041,21.29974599642241],[-101.69244574168982,21.2998878091041],[-101.69205643184124,21.299901903256],[-101.69183905933616,21.299766045538806],[-101.69170320291771,21.29954867298016],[-101.69137714284706,21.299195440253918],[-101.69061633712995,21.29922261356258],[-101.69037179247475,21.299059582283235],[-101.68982835937194,21.298706352247923],[-101.68947512676208,21.298407465398263],[-101.68912189793332,21.297891203779265],[-101.68882300926859,21.297429286227977],[-101.6886056362071,21.296885854326412],[-101.68837320911726,21.29651670407554],[-101.68814371853328,21.296152220737557],[-101.68765463246692,21.29590767507316],[-101.68735574365027,21.295826159308806],[-101.68675796550096,21.2956087866196],[-101.68594281768705,21.295119698442917],[-101.6854265583227,21.295065355446845],[-101.68433969274359,21.295255557320534],[-101.68413525025858,21.295266041360644],[-101.68327999958967,21.295309900502698],[-101.68262788003817,21.295445757719218],[-101.68213879039575,21.295472929210526],[-101.68118778506646,21.29550010179483],[-101.68094294604744,21.295500102183127],[-101.68050849348656,21.295500100228132],[-101.6797748605302,21.295500100467404],[-101.67939445797343,21.29541858577251],[-101.67923994055805,21.295418587092247],[-101.67890536824534,21.29541858608351],[-101.67828042168927,21.29563595936967],[-101.67795436098504,21.296070706239878],[-101.67732941450008,21.296586966517673],[-101.6764870935598,21.296967368306543],[-101.67610669148127,21.297347772419275],[-101.67564477349539,21.29767383125123],[-101.6752915432241,21.29770100350666],[-101.67499265459725,21.297701001541306],[-101.67466659453319,21.29789120367087],[-101.67434053580321,21.29829877699719],[-101.67433839883023,21.298302410148317],[-101.67406881954145,21.2987606947757],[-101.67360690223119,21.299222613187865],[-101.67288107014467,21.299443753737048],[-101.67241962947203,21.299562812570763],[-101.6717592330701,21.29963018686487],[-101.67096384928723,21.299630188029013],[-101.67088974024804,21.299630188184477],[-101.67068245016063,21.29966547221228],[-101.6696126742224,21.29984756012788],[-101.66896916233124,21.300247755161067],[-101.66831534245047,21.300431930506186],[-101.66768348961874,21.300581194377514],[-101.66739447179341,21.300800276523844],[-101.66714005703822,21.30115179812672],[-101.6670015378262,21.301428835802458],[-101.66697702664605,21.301477856598595],[-101.6670073718501,21.302204147569984],[-101.66705694625678,21.302876513416777],[-101.66726050935104,21.303441172851528],[-101.66710577781524,21.30384899324821],[-101.66692512758587,21.304376803365287],[-101.66663013709122,21.304520216518707],[-101.6656955036414,21.30431409925087],[-101.66502988541448,21.304108565329745],[-101.66423559848432,21.304130834027553],[-101.663632621799,21.304489648541594],[-101.66322080195545,21.30524503413116],[-101.66181441797013,21.30626006384556],[-101.66140684517913,21.306667637530683],[-101.66075472598483,21.307020868028548],[-101.66061886762382,21.307048040780387],[-101.6601541812538,21.307207014999975],[-101.65961351665857,21.307374099375316],[-101.65921810841618,21.307565072774832],[-101.65882058859268,21.30772024747475],[-101.65837197854573,21.307815283903903],[-101.65774392952837,21.307945931788733],[-101.65724958641196,21.30821641926607],[-101.6567061543973,21.30851530820209],[-101.65656327971995,21.308759603021535],[-101.656217064629,21.30911308236606],[-101.65599969235632,21.309846717653045],[-101.65597252135225,21.310091260794657],[-101.65587998637166,21.310450724722774],[-101.6557279768106,21.311286813417883],[-101.65570080534407,21.311477013460095],[-101.65570080447198,21.31202044765218],[-101.65570080570942,21.312119862627977],[-101.65570080521907,21.312292164535194],[-101.65559211809081,21.312808423723176],[-101.65559211670305,21.31318882675601],[-101.65580949039355,21.313433371542573],[-101.65608120668757,21.31362357301326],[-101.65624423555984,21.31400397525699],[-101.6562442360165,21.31438437909489],[-101.65627140877629,21.314547407538853],[-101.65610837981001,21.315063668641503],[-101.6559996919967,21.315661444516746],[-101.65575514652329,21.31598750437381],[-101.6553475729187,21.316313562423478],[-101.65493999904446,21.31672113677007],[-101.6547147067632,21.31717172419049],[-101.65465752611462,21.31749643833493],[-101.65456676638081,21.317538361065402],[-101.65450525195182,21.31775365855178],[-101.65412484993504,21.318297091758605],[-101.65379879015136,21.318541634557835],[-101.6534999035953,21.31894921046714],[-101.6530651558565,21.319383957682984],[-101.65254889635469,21.31995455917789],[-101.6522500093626,21.32036213463928],[-101.65205980777333,21.32087839564478],[-101.65181526208856,21.32123162693952],[-101.6513805165843,21.32161202861324],[-101.65116831880881,21.321748485953606],[-101.65079571625466,21.322155797454826],[-101.65062842903995,21.322437527125608],[-101.65049960799489,21.322707339752363],[-101.65028069694412,21.323133008202923],[-101.65021439851827,21.32327516298612],[-101.65011773858059,21.32349402872587],[-101.65002757810863,21.323676895040897],[-101.64993435511829,21.323805732935853],[-101.64983474941045,21.323925552617737],[-101.64975022016883,21.324462495342736],[-101.6497502193753,21.32473676574495],[-101.64975022034798,21.325253027147937],[-101.64977739039922,21.325823630295172],[-101.64999476345622,21.32628554703829],[-101.65012920534411,21.326471235187814],[-101.6503479956983,21.3268289799442],[-101.65059254089137,21.327290897780685],[-101.65059253866828,21.327644129792553],[-101.65034799431106,21.327970189330824],[-101.65013062149093,21.32818756166625],[-101.64964153358449,21.32840493457429],[-101.64907092809855,21.32870382138148],[-101.64858426761049,21.328833837607267],[-101.64818411637985,21.328986579671735],[-101.64782481320562,21.329197037669786],[-101.64741456121162,21.329292131534412],[-101.64725227543435,21.329377413421668],[-101.64715805885619,21.32938757879169],[-101.64661432822061,21.329568797270177],[-101.64623452094241,21.329779204273205],[-101.6461515595973,21.330143958212844],[-101.64612771667225,21.330323455800663],[-101.64609927222187,21.33053759461475],[-101.64607782708494,21.33092961770076],[-101.64598700914891,21.331338303369336],[-101.64593651328359,21.332196715776757],[-101.64583552488314,21.33244919076301],[-101.64582679579777,21.33280347138882],[-101.64567200338735,21.333196871016593],[-101.64534371480758,21.333301753125554],[-101.64483099609404,21.33337739516995],[-101.64452343572604,21.333395888950992],[-101.64426649126456,21.333654596080994],[-101.64423454517822,21.33410590302279],[-101.64431545505566,21.334519056908775],[-101.64472432863525,21.334952180090962],[-101.64500012632564,21.335317766680948],[-101.64517909024872,21.33563036833581],[-101.64530591647716,21.335971538291957],[-101.64540725583748,21.33641355095065],[-101.64538629852372,21.336586372036862],[-101.64537561707894,21.336749613072566],[-101.64552856499563,21.337057291179924],[-101.6455684274408,21.337489557746988],[-101.64558827010106,21.337739304421525],[-101.64565916358015,21.338066000318392],[-101.6456582771686,21.338402133981656],[-101.64540147738559,21.33860322079731],[-101.6448068342398,21.338640257711965],[-101.64415203442199,21.338168146912494],[-101.64365018389837,21.338003713577073],[-101.64274853338486,21.33784794996384],[-101.64215455783759,21.337635277344475],[-101.6414072604788,21.337258977504135],[-101.64096689465704,21.337104283328685],[-101.64064933146246,21.33702670719945],[-101.64049570099414,21.3369783271149],[-101.63998363454014,21.3368042539817],[-101.6392711881859,21.336539276029924],[-101.63870414560228,21.336119364733843],[-101.63826440712549,21.33573417155279],[-101.63779389387986,21.335358508231323],[-101.63715950589496,21.3349344358758],[-101.63657577651776,21.334731370044516]]]]}}]}